ONEWEB-0588             
1 55153U 23004P   24145.95719563  .00000043  00000+0  76713-4 0  9993
2 55153  87.9127 125.4486 0002105  69.8650 290.2708 13.18687695 70422
ONEWEB-0598             
1 55154U 23004Q   24145.80594416  .00001406  00000+0  39324-2 0  9995
2 55154  87.8986 170.9852 0002185  86.2666 273.8711 13.11394613 67150
ONEWEB-0599             
1 55155U 23004R   24145.96581135  .00000194  00000+0  46588-3 0  9991
2 55155  87.9173 155.7743 0002351  91.3527 268.7874 13.17649566 68293
ONEWEB-0614             
1 55156U 23004S   24145.80088685  .00003343  00000+0  93974-2 0  9996
2 55156  87.8960 170.9865 0001084  92.0092 268.1160 13.11389075 67097
ONEWEB-0616             
1 55157U 23004T   24145.93259053 -.00000010  00000+0 -58614-4 0  9994
2 55157  87.9164 155.7907 0002784 113.8856 246.2568 13.17649688 68502
ONEWEB-0617             
1 55158U 23004U   24145.78898805 -.00000691  00000+0 -19854-2 0  9998
2 55158  87.8977 170.9877 0000907  85.2244 274.8987 13.11398066 67110
ONEWEB-0618             
1 55159U 23004V   24145.89576198 -.00002670  00000+0 -11097-2 0  9999
2 55159  86.9048 101.5950 0013650  10.6124 349.5354 14.26815223 72020
ONEWEB-0619             
1 55160U 23004W   24145.58452975  .00000029  00000+0  42423-4 0  9996
2 55160  87.9166 155.8357 0001892 105.4834 254.6507 13.17651403 68357
